DUPLEX                  
1 66906U 98067XS  26080.91241347  .00034198  00000+0  46990-3 0  9999
2 66906  51.6306   8.2783 0003093 164.9627 195.1457 15.56968220 17035
ISS OBJECT XT           
1 66907U 98067XT  26080.79387592  .00227192  00000+0  15658-2 0  9993
2 66907  51.6255   3.7105 0005298 157.6847 202.4384 15.73355996 17084
ISS OBJECT XU           
1 66908U 98067XU  26080.79101126  .00231332  00000+0  15826-2 0  9999
2 66908  51.6250   3.6874 0005487 157.2895 202.8347 15.73514339 17082
SILVERSAT               
1 66909U 98067XV  26080.76561226  .00331784  00000+0  18726-2 0  9992
2 66909  51.6233   2.7602 0006028 161.9220 198.1996 15.77625461 17090
ISS OBJECT XW           
1 66910U 98067XW  26080.79537345  .00200201  00000+0  14497-2 0  9992
2 66910  51.6252   3.7127 0005794 158.4228 201.7016 15.72275809 17089
ISS OBJECT XX           
1 66911U 98067XX  26080.79564983  .00462250  00000+0  20542-2 0  9993
2 66911  51.6202   1.4317 0007596 165.5607 194.5614 15.82512156 17109
ISS OBJECT XY           
1 66912U 98067XY  26080.52366142  .00129023  00000+0  12252-2 0  9999
2 66912  51.6282   7.1735 0003878 158.9718 201.1438 15.65954710 17008
KNACKSAT-2              
1 67683U 98067XZ  26080.83039383  .00049396  00000+0  78446-3 0  9995
2 67683  51.6322  11.4797 0009777 229.0674 130.9470 15.52793496  6674
CORAL                   
1 67684U 98067YA  26080.52289188  .00108459  00000+0  14993-2 0  9994
2 67684  51.6312  12.4272 0012074 217.4243 142.5908 15.56214538  6630
GXIBA-1                 
1 67685U 98067YB  26080.82268782  .00057809  00000+0  89955-3 0  9998
2 67685  51.6328  11.4283 0011670 226.2975 133.7049 15.53267363  6673
UITMSAT-2               
1 67686U 98067YC  26079.20424217  .00036971  00000+0  56833-3 0  9992
2 67686  51.6331  19.3725 0008503 189.8163 170.2663 15.53839493  6420
HMU-SAT2                
1 67687U 98067YD  26080.82649173  .00056664  00000+0  89099-3 0  9994
2 67687  51.6325  11.4561 0008303 199.0980 160.9700 15.53024657  6597
LEOPARD                 
1 67688U 98067YE  26080.10933344  .00050861  00000+0  78512-3 0  9993
2 67688  51.6330  14.9166 0008406 194.0087 166.0671 15.53580320  6486
CREW DRAGON 12          
1 67796U 26031A   26080.84027526  .00015105  00000+0  28726-3 0  9996
2 67796  51.6343  12.2942 0006175 217.6861 142.3695 15.48433940558132
